NOAA 15                 
1 25338U 98030A   25112.14906318  .00000358  00000+0  16499-3 0  9991
2 25338  98.5397 138.4368 0011177 136.7800 223.4260 14.26947565401495
DMSP 5D-3 F16 (USA 172) 
1 28054U 03048A   25112.19475794  .00000246  00000+0  15266-3 0  9995
2 28054  99.0161 127.5871 0006093 256.6706 184.9209 14.14339636109955
NOAA 18                 
1 28654U 05018A   25112.20784916  .00000348  00000+0  20770-3 0  9990
2 28654  98.8425 192.2268 0013081 265.7470  94.2208 14.13581068 26917
METEOSAT-9 (MSG-2)      
1 28912U 05049B   25111.87660138  .00000133  00000+0  00000+0 0  9994
2 28912   8.3994  58.1529 0001073   2.2472 151.0156  1.00272145  2783
EWS-G1 (GOES 13)        
1 29155U 06018A   25112.21155963 -.00000234  00000+0  00000+0 0  9998
2 29155   3.4350  81.5404 0065179 264.6337  74.9065  0.98832459 69217
DMSP 5D-3 F17 (USA 191) 
1 29522U 06050A   25112.19884790  .00000292  00000+0  17392-3 0  9995
2 29522  98.7409 122.4108 0010188 171.2017 188.9337 14.14816734952884
FENGYUN 3A              
1 32958U 08026A   25111.95797776  .00000317  00000+0  17120-3 0  9994
2 32958  98.6443  56.8393 0007522 261.6138  98.4186 14.19424622875753
NOAA 19                 
1 33591U 09005A   25112.20643661  .00000321  00000+0  19515-3 0  9993
2 33591  99.0005 176.6325 0014613 137.9552 222.2744 14.13345832835275
GOES 14                 
1 35491U 09033A   25111.65345238 -.00000063  00000+0  00000+0 0  9991
2 35491   0.5875  88.5941 0000681  31.3209 216.9583  1.00270662  2366
DMSP 5D-3 F18 (USA 210) 
1 35951U 09057A   25112.19559839  .00000530  00000+0  29860-3 0  9999
2 35951  98.8567  90.1568 0011448  13.9952 346.1536 14.14593469800040
EWS-G2 (GOES 15)        
1 36411U 10008A   25111.96163027  .00000040  00000+0  00000+0 0  9990
2 36411   0.1820  86.1260 0001783 191.4034 340.3434  1.00274603 55411
COMS 1                  
1 36744U 10032A   25111.91464413 -.00000339  00000+0  00000+0 0  9996
2 36744   3.7244  80.6881 0000984 309.7623 277.1982  1.00271245 46860
FENGYUN 3B              
1 37214U 10059A   25112.22963147  .00000172  00000+0  11268-3 0  9997
2 37214  99.0182 150.1348 0021126 300.3154 135.3998 14.14716265747944
SUOMI NPP               
1 37849U 11061A   25112.18869552  .00000187  00000+0  10941-3 0  9998
2 37849  98.7548  51.9990 0002534  89.5159 270.6307 14.19522403698704
