[
  {
    "OBJECT_NAME": "NOAA 15",
    "OBJECT_ID": "1998-030A",
    "EPOCH": "2025-04-22T03:34:39.058752",
    "MEAN_MOTION": 14.26947565,
    "ECCENTRICITY": 0.0011177,
    "INCLINATION": 98.5397,
    "RA_OF_ASC_NODE": 138.4368,
    "ARG_OF_PERICENTER": 136.78,
    "MEAN_ANOMALY": 223.426,
    "EPHEMERIS_TYPE": 0,
    "CLASSIFICATION_TYPE": "U",
    "NORAD_CAT_ID": 25338,
    "ELEMENT_SET_NO": 999,
    "REV_AT_EPOCH": 40149,
    "BSTAR": 0.00016499,
    "MEAN_MOTION_DOT": 0.00000358,
    "MEAN_MOTION_DDOT": 0
  },
  {
    "OBJECT_NAME": "DMSP 5D-3 F16 (USA 172)",
    "OBJECT_ID": "2003-048A",
    "EPOCH": "2025-04-22T04:40:27.086016",
    "MEAN_MOTION": 14.14339636,
    "ECCENTRICITY": 0.0006093,
    "INCLINATION": 99.0161,
    "RA_OF_ASC_NODE": 127.5871,
    "ARG_OF_PERICENTER": 256.6706,
    "MEAN_ANOMALY": 184.9209,
    "EPHEMERIS_TYPE": 0,
    "CLASSIFICATION_TYPE": "U",
    "NORAD_CAT_ID": 28054,
    "ELEMENT_SET_NO": 999,
    "REV_AT_EPOCH": 10995,
    "BSTAR": 0.00015266,
    "MEAN_MOTION_DOT": 0.00000246,
    "MEAN_MOTION_DDOT": 0
  },
  {
    "OBJECT_NAME": "NOAA 18",
    "OBJECT_ID": "2005-018A",
    "EPOCH": "2025-04-22T04:59:18.167424",
    "MEAN_MOTION": 14.13581068,
    "ECCENTRICITY": 0.0013081,
    "INCLINATION": 98.8425,
    "RA_OF_ASC_NODE": 192.2268,
    "ARG_OF_PERICENTER": 265.747,
    "MEAN_ANOMALY": 94.2208,
    "EPHEMERIS_TYPE": 0,
    "CLASSIFICATION_TYPE": "U",
    "NORAD_CAT_ID": 28654,
    "ELEMENT_SET_NO": 999,
    "REV_AT_EPOCH": 2691,
    "BSTAR": 0.0002077,
    "MEAN_MOTION_DOT": 0.00000348,
    "MEAN_MOTION_DDOT": 0
  },
  {
    "OBJECT_NAME": "METEOSAT-9 (MSG-2)",
    "OBJECT_ID": "2005-049B",
    "EPOCH": "2025-04-21T21:02:18.359232",
    "MEAN_MOTION": 1.00272145,
    "ECCENTRICITY": 0.0001073,
    "INCLINATION": 8.3994,
    "RA_OF_ASC_NODE": 58.1529,
    "ARG_OF_PERICENTER": 2.2472,
    "MEAN_ANOMALY": 151.0156,
    "EPHEMERIS_TYPE": 0,
    "CLASSIFICATION_TYPE": "U",
    "NORAD_CAT_ID": 28912,
    "ELEMENT_SET_NO": 999,
    "REV_AT_EPOCH": 278,
    "BSTAR": 0,
    "MEAN_MOTION_DOT": 0.00000133,
    "MEAN_MOTION_DDOT": 0
  },
  {
    "OBJECT_NAME": "EWS-G1 (GOES 13)",
    "OBJECT_ID": "2006-018A",
    "EPOCH": "2025-04-22T05:04:38.752032",
    "MEAN_MOTION": 0.98832459,
    "ECCENTRICITY": 0.0065179,
    "INCLINATION": 3.435,
    "RA_OF_ASC_NODE": 81.5404,
    "ARG_OF_PERICENTER": 264.6337,
    "MEAN_ANOMALY": 74.9065,
    "EPHEMERIS_TYPE": 0,
    "CLASSIFICATION_TYPE": "U",
    "NORAD_CAT_ID": 29155,
    "ELEMENT_SET_NO": 999,
    "REV_AT_EPOCH": 6921,
    "BSTAR": 0,
    "MEAN_MOTION_DOT": -0.00000234,
    "MEAN_MOTION_DDOT": 0
  },
  {
    "OBJECT_NAME": "DMSP 5D-3 F17 (USA 191)",
    "OBJECT_ID": "2006-050A",
    "EPOCH": "2025-04-22T04:46:20.458560",
    "MEAN_MOTION": 14.14816734,
    "ECCENTRICITY": 0.0010188,
    "INCLINATION": 98.7409,
    "RA_OF_ASC_NODE": 122.4108,
    "ARG_OF_PERICENTER": 171.2017,
    "MEAN_ANOMALY": 188.9337,
    "EPHEMERIS_TYPE": 0,
    "CLASSIFICATION_TYPE": "U",
    "NORAD_CAT_ID": 29522,
    "ELEMENT_SET_NO": 999,
    "REV_AT_EPOCH": 95288,
    "BSTAR": 0.00017392,
    "MEAN_MOTION_DOT": 0.00000292,
    "MEAN_MOTION_DDOT": 0
  },
  {
    "OBJECT_NAME": "FENGYUN 3A",
    "OBJECT_ID": "2008-026A",
    "EPOCH": "2025-04-21T22:59:29.278464",
    "MEAN_MOTION": 14.19424622,
    "ECCENTRICITY": 0.0007522,
    "INCLINATION": 98.6443,
    "RA_OF_ASC_NODE": 56.8393,
    "ARG_OF_PERICENTER": 261.6138,
    "MEAN_ANOMALY": 98.4186,
    "EPHEMERIS_TYPE": 0,
    "CLASSIFICATION_TYPE": "U",
    "NORAD_CAT_ID": 32958,
    "ELEMENT_SET_NO": 999,
    "REV_AT_EPOCH": 87575,
    "BSTAR": 0.0001712,
    "MEAN_MOTION_DOT": 0.00000317,
    "MEAN_MOTION_DDOT": 0
  },
  {
    "OBJECT_NAME": "NOAA 19",
    "OBJECT_ID": "2009-005A",
    "EPOCH": "2025-04-22T04:57:16.123104",
    "MEAN_MOTION": 14.13345832,
    "ECCENTRICITY": 0.0014613,
    "INCLINATION": 99.0005,
    "RA_OF_ASC_NODE": 176.6325,
    "ARG_OF_PERICENTER": 137.9552,
    "MEAN_ANOMALY": 222.2744,
    "EPHEMERIS_TYPE": 0,
    "CLASSIFICATION_TYPE": "U",
    "NORAD_CAT_ID": 33591,
    "ELEMENT_SET_NO": 999,
    "REV_AT_EPOCH": 83527,
    "BSTAR": 0.00019515,
    "MEAN_MOTION_DOT": 0.00000321,
    "MEAN_MOTION_DDOT": 0
  },
  {
    "OBJECT_NAME": "GOES 14",
    "OBJECT_ID": "2009-033A",
    "EPOCH": "2025-04-21T15:40:58.285632",
    "MEAN_MOTION": 1.00270662,
    "ECCENTRICITY": 0.0000681,
    "INCLINATION": 0.5875,
    "RA_OF_ASC_NODE": 88.5941,
    "ARG_OF_PERICENTER": 31.3209,
    "MEAN_ANOMALY": 216.9583,
    "EPHEMERIS_TYPE": 0,
    "CLASSIFICATION_TYPE": "U",
    "NORAD_CAT_ID": 35491,
    "ELEMENT_SET_NO": 999,
    "REV_AT_EPOCH": 236,
    "BSTAR": 0,
    "MEAN_MOTION_DOT": -6.3e-7,
    "MEAN_MOTION_DDOT": 0
  },
  {
    "OBJECT_NAME": "DMSP 5D-3 F18 (USA 210)",
    "OBJECT_ID": "2009-057A",
    "EPOCH": "2025-04-22T04:41:39.700896",
    "MEAN_MOTION": 14.14593469,
    "ECCENTRICITY": 0.0011448,
    "INCLINATION": 98.8567,
    "RA_OF_ASC_NODE": 90.1568,
    "ARG_OF_PERICENTER": 13.9952,
    "MEAN_ANOMALY": 346.1536,
    "EPHEMERIS_TYPE": 0,
    "CLASSIFICATION_TYPE": "U",
    "NORAD_CAT_ID": 35951,
    "ELEMENT_SET_NO": 999,
    "REV_AT_EPOCH": 80004,
    "BSTAR": 0.0002986,
    "MEAN_MOTION_DOT": 0.0000053,
    "MEAN_MOTION_DDOT": 0
  },
  {
    "OBJECT_NAME": "EWS-G2 (GOES 15)",
    "OBJECT_ID": "2010-008A",
    "EPOCH": "2025-04-21T23:04:44.855328",
    "MEAN_MOTION": 1.00274603,
    "ECCENTRICITY": 0.0001783,
    "INCLINATION": 0.182,
    "RA_OF_ASC_NODE": 86.126,
    "ARG_OF_PERICENTER": 191.4034,
    "MEAN_ANOMALY": 340.3434,
    "EPHEMERIS_TYPE": 0,
    "CLASSIFICATION_TYPE": "U",
    "NORAD_CAT_ID": 36411,
    "ELEMENT_SET_NO": 999,
    "REV_AT_EPOCH": 5541,
    "BSTAR": 0,
    "MEAN_MOTION_DOT": 4e-7,
    "MEAN_MOTION_DDOT": 0
  },
  {
    "OBJECT_NAME": "COMS 1",
    "OBJECT_ID": "2010-032A",
    "EPOCH": "2025-04-21T21:57:05.252832",
    "MEAN_MOTION": 1.00271245,
    "ECCENTRICITY": 0.0000984,
    "INCLINATION": 3.7244,
    "RA_OF_ASC_NODE": 80.6881,
    "ARG_OF_PERICENTER": 309.7623,
    "MEAN_ANOMALY": 277.1982,
    "EPHEMERIS_TYPE": 0,
    "CLASSIFICATION_TYPE": "U",
    "NORAD_CAT_ID": 36744,
    "ELEMENT_SET_NO": 999,
    "REV_AT_EPOCH": 4686,
    "BSTAR": 0,
    "MEAN_MOTION_DOT": -0.00000339,
    "MEAN_MOTION_DDOT": 0
  },
  {
    "OBJECT_NAME": "FENGYUN 3B",
    "OBJECT_ID": "2010-059A",
    "EPOCH": "2025-04-22T05:30:40.159008",
    "MEAN_MOTION": 14.14716265,
    "ECCENTRICITY": 0.0021126,
    "INCLINATION": 99.0182,
    "RA_OF_ASC_NODE": 150.1348,
    "ARG_OF_PERICENTER": 300.3154,
    "MEAN_ANOMALY": 135.3998,
    "EPHEMERIS_TYPE": 0,
    "CLASSIFICATION_TYPE": "U",
    "NORAD_CAT_ID": 37214,
    "ELEMENT_SET_NO": 999,
    "REV_AT_EPOCH": 74794,
    "BSTAR": 0.00011268,
    "MEAN_MOTION_DOT": 0.00000172,
    "MEAN_MOTION_DDOT": 0
  },
  {
    "OBJECT_NAME": "SUOMI NPP",
    "OBJECT_ID": "2011-061A",
    "EPOCH": "2025-04-22T04:31:43.292928",
    "MEAN_MOTION": 14.19522403,
    "ECCENTRICITY": 0.0002534,
    "INCLINATION": 98.7548,
    "RA_OF_ASC_NODE": 51.999,
    "ARG_OF_PERICENTER": 89.5159,
    "MEAN_ANOMALY": 270.6307,
    "EPHEMERIS_TYPE": 0,
    "CLASSIFICATION_TYPE": "U",
    "NORAD_CAT_ID": 37849,
    "ELEMENT_SET_NO": 999,
    "REV_AT_EPOCH": 69870,
    "BSTAR": 0.00010941,
    "MEAN_MOTION_DOT": 0.00000187,
    "MEAN_MOTION_DDOT": 0
  }
]